{
    "links": {
        "self": "http://www.neowsapp.com/rest/v1/neo/3830508?api_key=iIulBulltgU6a56xZRHN4H3l9WmuAYTsLGpBGhQ2"
    },
    "id": "3830508",
    "neo_reference_id": "3830508",
    "name": "(2018 SM)",
    "designation": "2018 SM",
    "nasa_jpl_url": "http://ssd.jpl.nasa.gov/sbdb.cgi?sstr=3830508",
    "absolute_magnitude_h": 29.4,
    "estimated_diameter": {
        "kilometers": {
            "estimated_diameter_min": 0.0035039264,
            "estimated_diameter_max": 0.0078350176
        },
        "meters": {
            "estimated_diameter_min": 3.5039264111,
            "estimated_diameter_max": 7.8350176433
        },
        "miles": {
            "estimated_diameter_min": 0.0021772383,
            "estimated_diameter_max": 0.0048684527
        },
        "feet": {
            "estimated_diameter_min": 11.4958219265,
            "estimated_diameter_max": 25.705439285
        }
    },
    "is_potentially_hazardous_asteroid": false,
    "close_approach_data": [
        {
            "close_approach_date": "2018-09-15",
            "close_approach_date_full": "2018-Sep-15 13:44",
            "epoch_date_close_approach": 1537019040000,
            "relative_velocity": {
                "kilometers_per_second": "9.882138297",
                "kilometers_per_hour": "35575.697869075",
                "miles_per_hour": "22105.3551564817"
            },
            "miss_distance": {
                "astronomical": "0.0018764359",
                "lunar": "0.7299335651",
                "kilometers": "280710.813831533",
                "miles": "174425.6114918354"
            },
            "orbiting_body": "Moon"
        },
        {
            "close_approach_date": "2018-09-15",
            "close_approach_date_full": "2018-Sep-15 22:29",
            "epoch_date_close_approach": 1537050540000,
            "relative_velocity": {
                "kilometers_per_second": "11.0830545374",
                "kilometers_per_hour": "39898.996334617",
                "miles_per_hour": "24791.6846946957"
            },
            "miss_distance": {
                "astronomical": "0.0002849325",
                "lunar": "0.1108387425",
                "kilometers": "42625.295093775",
                "miles": "26486.130193095"
            },
            "orbiting_body": "Earth"
        },
        {
            "close_approach_date": "2073-06-03",
            "close_approach_date_full": "2073-Jun-03 07:51",
            "epoch_date_close_approach": 3263701860000,
            "relative_velocity": {
                "kilometers_per_second": "19.8470935757",
                "kilometers_per_hour": "71449.536872655",
                "miles_per_hour": "44395.9636195672"
            },
            "miss_distance": {
                "astronomical": "0.4016065062",
                "lunar": "156.2249309118",
                "kilometers": "60079477.905661794",
                "miles": "37331656.4786649972"
            },
            "orbiting_body": "Earth"
        },
        {
            "close_approach_date": "2080-10-13",
            "close_approach_date_full": "2080-Oct-13 15:56",
            "epoch_date_close_approach": 3496060560000,
            "relative_velocity": {
                "kilometers_per_second": "19.6190309769",
                "kilometers_per_hour": "70628.511516777",
                "miles_per_hour": "43885.8103921885"
            },
            "miss_distance": {
                "astronomical": "0.3416043325",
                "lunar": "132.8840853425",
                "kilometers": "51103280.524771775",
                "miles": "31754106.060629495"
            },
            "orbiting_body": "Earth"
        },
        {
            "close_approach_date": "2185-07-09",
            "close_approach_date_full": "2185-Jul-09 00:21",
            "epoch_date_close_approach": 6801150060000,
            "relative_velocity": {
                "kilometers_per_second": "9.9213147222",
                "kilometers_per_hour": "35716.7329999356",
                "miles_per_hour": "22192.9889020988"
            },
            "miss_distance": {
                "astronomical": "0.1538529162",
                "lunar": "59.8487844018",
                "kilometers": "23016068.556808494",
                "miles": "14301521.8308214572"
            },
            "orbiting_body": "Earth"
        }
    ],
    "orbital_data": {
        "orbit_id": "1",
        "orbit_determination_date": "2018-09-18 09:42:03",
        "first_observation_date": "2018-09-16",
        "last_observation_date": "2018-09-18",
        "data_arc_in_days": 2,
        "observations_used": 18,
        "orbit_uncertainty": "7",
        "minimum_orbit_intersection": ".000170647",
        "jupiter_tisserand_invariant": "3.937",
        "epoch_osculation": "2459000.5",
        "eccentricity": ".4678823042332441",
        "semi_major_axis": "1.785504093729702",
        "inclination": "8.971168554713797",
        "ascending_node_longitude": "172.829989659629",
        "orbital_period": "871.4444378079008",
        "perihelion_distance": ".9500983241375586",
        "perihelion_argument": "145.9124198619642",
        "aphelion_distance": "2.620909863321844",
        "perihelion_time": "2459221.569327940041",
        "mean_anomaly": "268.6746617390675",
        "mean_motion": ".4131072325225599",
        "equinox": "J2000",
        "orbit_class": {
            "orbit_class_type": "APO",
            "orbit_class_description": "Near-Earth asteroid orbits which cross the Earth’s orbit similar to that of 1862 Apollo",
            "orbit_class_range": "a (semi-major axis) > 1.0 AU; q (perihelion) < 1.017 AU"
        }
    },
    "is_sentry_object": false
}